ASTRA 2E                
1 39285U 13056A   25286.56503344  .00000138  00000+0  00000+0 0  9995
2 39285   0.0816 313.3304 0002808 243.8850  57.0890  1.00272470 43941
FM-6                    
1 39360U 13058A   25286.15878056 -.00000029  00000+0  00000+0 0  9991
2 39360   0.0206 133.0171 0002473  38.8086 151.1743  1.00269680 43580
RADUGA-1M 3             
1 39375U 13062A   25286.56581179  .00000144  00000+0  00000+0 0  9991
2 39375   5.3339  75.3464 0002558 306.9453 238.7851  1.00272160 43630
SES-8                   
1 39460U 13071A   25286.62151830 -.00000282  00000+0  00000+0 0  9994
2 39460   0.0181 235.3014 0001698 285.9925 179.9010  1.00270454 41955
INMARSAT 5-F1           
1 39476U 13073A   25286.14314507  .00000016  00000+0  00000+0 0  9996
2 39476   0.0170 193.5334 0000497  36.7172 265.8702  1.00270646 43118
TKSAT-1 (TUPAC KATARI)  
1 39481U 13075A   25286.54154501 -.00000207  00000+0  00000+0 0  9997
2 39481   0.0208  31.1964 0002448 187.4583 271.4658  1.00270259 43124
EXPRESS-AM5             
1 39487U 13077A   25286.45858336 -.00000292  00000+0  00000+0 0  9996
2 39487   0.0185 220.8224 0000153 310.2673 156.3119  1.00272475 43885
GSAT-14                 
1 39498U 14001A   25286.57834914 -.00000090  00000+0  00000+0 0  9991
2 39498   0.0471  71.9355 0005193 155.1151  77.5509  1.00272136 42904
THAICOM 6               
1 39500U 14002A   25286.57447850 -.00000134  00000+0  00000+0 0  9994
2 39500   0.0753 100.2992 0003405 100.0083 107.3879  1.00270644 42983
TDRS 12                 
1 39504U 14004A   25286.47940472 -.00000281  00000+0  00000+0 0  9990
2 39504   3.7583  14.4361 0007265 223.5060 276.0506  1.00268998 41808
ABS-2                   
1 39508U 14006A   25286.57369850 -.00000099  00000+0  00000+0 0  9999
2 39508   0.0616  80.4598 0003740 126.5396  96.8620  1.00271683 42803
ATHENA-FIDUS            
1 39509U 14006B   25286.56633179  .00000141  00000+0  00000+0 0  9994
2 39509   0.0253 116.3035 0001595 105.3889  42.3709  1.00270615 42611
TURKSAT 4A              
1 39522U 14007A   25286.54836230  .00000133  00000+0  00000+0 0  9992
2 39522   0.0518 290.7706 0004119 318.9907  11.9995  1.00270474 42498
EXPRESS-AT1             
1 39612U 14010A   25286.64129881  .00000065  00000+0  00000+0 0  9998
2 39612   0.0086 232.5321 0000134 301.4862 135.3162  1.00271879 42346
EXPRESS-AT2             
1 39613U 14010B   25285.23079185 -.00000290  00000+0  00000+0 0  9995
2 39613   0.0174 228.3626 0000312 164.2420 211.3956  1.00268655 42017
AMAZONAS 4A             
1 39616U 14011A   25286.54423169 -.00000265  00000+0  00000+0 0  9991
2 39616   0.0567 160.2671 0005520  49.7165 294.3034  1.00272658 42240
ASTRA 5B                
1 39617U 14011B   25286.55545905  .00000124  00000+0  00000+0 0  9999
2 39617   0.0513 359.7731 0003985 228.7459  17.3272  1.00270360 42191
IRNSS-1B                
1 39635U 14017A   25282.47614417  .00000098  00000+0  00000+0 0  9997
2 39635  28.9447 244.6899 0019143 191.2861 168.8446  1.00269689 42284
LUCH-5V                 
1 39727U 14023A   25286.65942179 -.00000280  00000+0  00000+0 0  9993
2 39727   4.5149  72.0559 0003563 170.3163 112.2722  1.00273269 41887
KAZSAT-3                
1 39728U 14023B   25286.57049182  .00000048  00000+0  00000+0 0  9998
2 39728   0.0308 358.6254 0000091 322.0117 325.6289  1.00271200 39988
EUTELSAT 3B             
1 39773U 14030A   25286.55939843  .00000007  00000+0  00000+0 0  9991
2 39773   0.0694 345.8769 0004883 211.7211  29.2722  1.00271013 41598
ASIASAT 8 (AMOS-7)      
1 40107U 14046A   25286.29429242 -.00000346  00000+0  00000+0 0  9996
2 40107   0.0167 175.6326 0001496  31.1149  26.6145  1.00277105 99675
ASIASAT 6               
1 40141U 14052A   25286.58262520 -.00000375  00000+0  00000+0 0  9999
2 40141   0.0460  74.2371 0001014 141.0354 136.7888  1.00271967 40592
OPTUS 10                
1 40146U 14054A   25286.59003292 -.00000160  00000+0  00000+0 0  9998
2 40146   0.1218  30.4785 0003242 170.7116 189.6632  1.00270643 40552
MEASAT-3B               
1 40147U 14054B   25286.64274675 -.00000255  00000+0  00000+0 0  9995
2 40147   0.0537  51.1546 0000689  70.8317 223.3702  1.00273182 40438
LUCH (OLYMP-K 1)        
1 40258U 14058A   25282.61038442  .00000030  00000+0  00000+0 0  9995
2 40258   1.2404  85.7444 0002333 129.3047  88.2925  1.00147206 38489
HIMAWARI-8              
1 40267U 14060A   25286.37212708 -.00000288  00000+0  00000+0 0  9990
2 40267   0.0346 124.7669 0001157 100.2011  71.8374  1.00269442 40279
IRNSS-1C                
1 40269U 14061A   25286.50393149 -.00000171  00000+0  00000+0 0  9998
2 40269   5.8835  93.8474 0019095   6.0342 186.9345  1.00267099 40213
INTELSAT 30 (IS-30)     
1 40271U 14062A   25286.46867954 -.00000163  00000+0  00000+0 0  9998
2 40271   0.0024 201.1856 0001323 221.3691  33.4007  1.00271264  4316
ARSAT 1                 
1 40272U 14062B   25286.47327289 -.00000272  00000+0  00000+0 0  9993
2 40272   0.0230 298.6821 0001879 263.7981 278.4072  1.00272403 40147
EXPRESS-AM6             
1 40277U 14064A   25285.64176711  .00000088  00000+0  00000+0 0  9994
2 40277   0.0183 217.5374 0001350 347.9006 100.0780  1.00269447 39080
GSAT-16                 
1 40332U 14078A   25286.56979847  .00000072  00000+0  00000+0 0  9997
2 40332   0.0848  87.7239 0004292  32.6772 162.2045  1.00273591 39633
DIRECTV 14              
1 40333U 14078B   25286.39647288 -.00000138  00000+0  00000+0 0  9994
2 40333   0.0170 207.8068 0000670  31.4764 186.4321  1.00270140 39565
YAMAL 401               
1 40345U 14082A   25283.86517068 -.00000233  00000+0  00000+0 0  9999
2 40345   0.0093 221.2839 0000600 133.6406  66.2221  1.00273369 39413
ASTRA 2G                
1 40364U 14089A   25286.56503344  .00000137  00000+0  00000+0 0  9991
2 40364   0.0533  21.9093 0001167  74.2321 157.8358  1.00271055 39491
FENGYUN 2G              
1 40367U 14090A   25286.66178931 -.00000311  00000+0  00000+0 0  9992
2 40367   5.0135  75.7966 0004043 181.0686 103.4133  1.00267026 39525
MUOS-3                  
1 40374U 15002A   25286.19895865 -.00000138  00000+0  00000+0 0  9991
2 40374   4.0519  41.9434 0060905 180.1327 216.1229  1.00272517 39118
INMARSAT 5-F2           
1 40384U 15005A   25286.04846088 -.00000297  00000+0  00000+0 0  9998
2 40384   0.0139 163.5828 0000377  79.1722 101.5783  1.00270601 38511
ABS-3A                  
1 40424U 15010A   25286.55818509 -.00000039  00000+0  00000+0 0  9996
2 40424   0.0121 241.3643 0001686 268.7974  70.1640  1.00270306 38904
EUTELSAT 115 WEST B     
1 40425U 15010B   25286.01225584 -.00000036  00000+0  00000+0 0  9990
2 40425   0.0452  36.2263 0000224 159.9412  75.1822  1.00270835 38911
EXPRESS-AM7             
1 40505U 15012A   25286.63817880  .00000138  00000+0  00000+0 0  9997
2 40505   0.0213 108.0406 0003314 115.1151  69.0499  1.00273943 38532
BEIDOU-3S IGSO-1S       
1 40549U 15019A   25286.50575150 -.00000135  00000+0  00000+0 0  9997
2 40549  49.6647 298.4330 0040926 197.0862 159.5534  1.00252629 38597
THOR 7                  
1 40613U 15022A   25286.55861843 -.00000021  00000+0  00000+0 0  9999
2 40613   0.0183 133.3004 0002779  75.0604  14.4644  1.00270797 38343
TURKMENALEM52E/MONACOSAT
1 40617U 15023A   25286.56919181  .00000091  00000+0  00000+0 0  9990
2 40617   0.0413  79.4347 0002936 129.6848  70.2028  1.00273314 38371
DIRECTV 15              
1 40663U 15026A   25286.46711954 -.00000115  00000+0  00000+0 0  9999
2 40663   0.0443  75.1941 0000303 111.7755 260.6339  1.00272092 37981
SKY MEXICO-1            
1 40664U 15026B   25286.54327836 -.00000247  00000+0  00000+0 0  9997
2 40664   0.0204 266.4112 0002217 299.0808 293.6943  1.00270659 37981
METEOSAT-11 (MSG-4)     
1 40732U 15034A   25286.56078510  .00000056  00000+0  00000+0 0  9993
2 40732   2.5814  72.1388 0000581 210.1209 311.8497  1.00283660  4740
STAR ONE C4             
1 40733U 15034B   25286.54501170 -.00000278  00000+0  00000+0 0  9992
2 40733   0.0405  25.6438 0001756 213.0567 269.8790  1.00272335 37542
WGS F7 (USA 263)        
1 40746U 15036A   25286.57892030  .00000005  00000+0  00000+0 0  9996
2 40746   0.0168 237.5612 0000212  12.0179 156.2520  1.00270021 37395
INTELSAT 34 (IS-34)     
1 40874U 15039A   25286.40513961 -.00000298  00000+0  00000+0 0  9991
2 40874   0.0229 266.0919 0000405 110.4656  96.0113  1.00271797 37153
EUTELSAT 8 WEST B       
1 40875U 15039B   25286.34317265 -.00000078  00000+0  00000+0 0  9990
2 40875   0.0681   3.2299 0003777 200.6740 293.8022  1.00271495 37183
GSAT-6                  
1 40880U 15041A   25286.57525850 -.00000173  00000+0  00000+0 0  9991
2 40880   1.2771  85.8069 0003105 114.6277 111.6162  1.00271511 37122
INMARSAT 5-F3           
1 40882U 15042A   25286.23769882  .00000038  00000+0  00000+0 0  9991
2 40882   0.0170 205.9653 0000231 236.7586 204.4878  1.00271496 37097
MUOS-4                  
1 40887U 15044A   25286.50228483 -.00000104  00000+0  00000+0 0  9990
2 40887   3.8749  40.1882 0051485   1.5423 236.4374  1.00271566 37086
TJS-1                   
1 40892U 15046A   25286.59003292 -.00000168  00000+0  00000+0 0  9996
2 40892   0.0650  76.3819 0003940 162.2522 151.2355  1.00272403 37096
EXPRESS-AM8             
1 40895U 15048A   25285.41443936 -.00000121  00000+0  00000+0 0  9993
2 40895   0.0185 218.0025 0000199 330.1480 328.3070  1.00271290 36866
BEIDOU-3S IGSO-2S       
1 40938U 15053A   25285.83771759 -.00000131  00000+0  00000+0 0  9991
2 40938  49.6099 261.7240 0062006 189.5161 327.3966  1.00283858 36875
SKY MUSTER 1 (NBN1A)    
1 40940U 15054A   25286.30122578 -.00000290  00000+0  00000+0 0  9993
2 40940   0.0134 251.5878 0001808 314.0179  65.2200  1.00272048 36788
ARSAT 2                 
1 40941U 15054B   25286.54284502 -.00000238  00000+0  00000+0 0  9998
2 40941   0.0205 293.9904 0002195 261.1687 301.6413  1.00272220 36835
